{
  "type": "FeatureCollection",
  "features": [
    {
      "type": "Feature",
      "properties": {
        "norad_id": 66814,
        "name": "STARLINK-35984",
        "group": "last-30-days",
        "lat": -21.49882372772617,
        "lon": 14.02239462940873,
        "alt_km": 416.1314411660469,
        "timestamp": "2025-12-26T14:28:46.396192+00:00",
        "meta_object_name": "STARLINK-35984",
        "meta_object_id": "2025-278Z",
        "meta_epoch": "2025-12-26T04:17:31.361280",
        "meta_mean_motion": 15.50601996,
        "meta_eccentricity": 0.00023567,
        "meta_inclination": 42.9998,
        "meta_ra_of_asc_node": 171.5011,
        "meta_arg_of_pericenter": 273.0476,
        "meta_mean_anomaly": 87.0114,
        "meta_ephemeris_type": 0,
        "meta_classification_type": "U",
        "meta_norad_cat_id": 66814,
        "meta_element_set_no": 999,
        "meta_rev_at_epoch": 394,
        "meta_bstar": 0.0013702707,
        "meta_mean_motion_dot": 0.00080951,
        "meta_mean_motion_ddot": 0,
        "tle_line1": "1 66814U 25278Z   25360.17883520  .00080951  00000+0  13703-2 0  9997",
        "tle_line2": "2 66814  42.9998 171.5011 0002356 273.0476  87.0114 15.50601996  3948"
      },
      "geometry": {
        "type": "Point",
        "coordinates": [
          14.02239462940873,
          -21.49882372772617
        ]
      }
    },
    {
      "type": "Feature",
      "properties": {
        "norad_id": 66815,
        "name": "STARLINK-35985",
        "group": "last-30-days",
        "lat": -20.247266720355498,
        "lon": 12.339515663920603,
        "alt_km": 416.46761987020636,
        "timestamp": "2025-12-26T14:28:46.396204+00:00",
        "meta_object_name": "STARLINK-35985",
        "meta_object_id": "2025-278AA",
        "meta_epoch": "2025-12-26T06:00:02.999808",
        "meta_mean_motion": 15.50521726,
        "meta_eccentricity": 0.00017735,
        "meta_inclination": 43.0004,
        "meta_ra_of_asc_node": 171.0881,
        "meta_arg_of_pericenter": 268.7356,
        "meta_mean_anomaly": 127.3556,
        "meta_ephemeris_type": 0,
        "meta_classification_type": "U",
        "meta_norad_cat_id": 66815,
        "meta_element_set_no": 999,
        "meta_rev_at_epoch": 521,
        "meta_bstar": 0.00099224268,
        "meta_mean_motion_dot": 0.00058184,
        "meta_mean_motion_ddot": 0,
        "tle_line1": "1 66815U 25278AA  25360.25003472  .00058184  00000+0  99224-3 0  9993",
        "tle_line2": "2 66815  43.0004 171.0881 0001773 268.7356 127.3556 15.50521726  5211"
      },
      "geometry": {
        "type": "Point",
        "coordinates": [
          12.339515663920603,
          -20.247266720355498
        ]
      }
    },
    {
      "type": "Feature",
      "properties": {
        "norad_id": 66816,
        "name": "STARLINK-36098",
        "group": "last-30-days",
        "lat": -15.347379442264698,
        "lon": 6.170524283474593,
        "alt_km": 416.1729086352352,
        "timestamp": "2025-12-26T14:28:46.396214+00:00",
        "meta_object_name": "STARLINK-36098",
        "meta_object_id": "2025-278AB",
        "meta_epoch": "2025-12-26T06:00:02.999808",
        "meta_mean_motion": 15.50530463,
        "meta_eccentricity": 0.000148,
        "meta_inclination": 43.0003,
        "meta_ra_of_asc_node": 171.1081,
        "meta_arg_of_pericenter": 265.1125,
        "meta_mean_anomaly": 123.3028,
        "meta_ephemeris_type": 0,
        "meta_classification_type": "U",
        "meta_norad_cat_id": 66816,
        "meta_element_set_no": 999,
        "meta_rev_at_epoch": 497,
        "meta_bstar": 0.00083765413,
        "meta_mean_motion_dot": 0.00049023,
        "meta_mean_motion_ddot": 0,
        "tle_line1": "1 66816U 25278AB  25360.25003472  .00049023  00000+0  83765-3 0  9999",
        "tle_line2": "2 66816  43.0003 171.1081 0001480 265.1125 123.3028 15.50530463  4974"
      },
      "geometry": {
        "type": "Point",
        "coordinates": [
          6.170524283474593,
          -15.347379442264698
        ]
      }
    },
    {
      "type": "Feature",
      "properties": {
        "norad_id": 66817,
        "name": "STARLINK-35995",
        "group": "last-30-days",
        "lat": -17.82592593274404,
        "lon": 9.216515216152134,
        "alt_km": 416.3544514508603,
        "timestamp": "2025-12-26T14:28:46.396227+00:00",
        "meta_object_name": "STARLINK-35995",
        "meta_object_id": "2025-278AC",
        "meta_epoch": "2025-12-26T06:00:02.999808",
        "meta_mean_motion": 15.50534889,
        "meta_eccentricity": 0.00015174,
        "meta_inclination": 43.0004,
        "meta_ra_of_asc_node": 171.0968,
        "meta_arg_of_pericenter": 265.4714,
        "meta_mean_anomaly": 126.7839,
        "meta_ephemeris_type": 0,
        "meta_classification_type": "U",
        "meta_norad_cat_id": 66817,
        "meta_element_set_no": 999,
        "meta_rev_at_epoch": 513,
        "meta_bstar": 0.00060741313,
        "meta_mean_motion_dot": 0.00035398,
        "meta_mean_motion_ddot": 0,
        "tle_line1": "1 66817U 25278AC  25360.25003472  .00035398  00000+0  60741-3 0  9999",
        "tle_line2": "2 66817  43.0004 171.0968 0001517 265.4714 126.7839 15.50534889  5139"
      },
      "geometry": {
        "type": "Point",
        "coordinates": [
          9.216515216152134,
          -17.82592593274404
        ]
      }
    },
    {
      "type": "Feature",
      "properties": {
        "norad_id": 66818,
        "name": "STARLINK-35994",
        "group": "last-30-days",
        "lat": -2.894904224758837,
        "lon": -7.802499609742417,
        "alt_km": 435.96878156634375,
        "timestamp": "2025-12-26T14:28:46.396237+00:00",
        "meta_object_name": "STARLINK-35994",
        "meta_object_id": "2025-278AD",
        "meta_epoch": "2025-12-26T06:00:02.999808",
        "meta_mean_motion": 15.4503217,
        "meta_eccentricity": 0.00018375,
        "meta_inclination": 43.001,
        "meta_ra_of_asc_node": 171.1339,
        "meta_arg_of_pericenter": 264.3236,
        "meta_mean_anomaly": 113.5706,
        "meta_ephemeris_type": 0,
        "meta_classification_type": "U",
        "meta_norad_cat_id": 66818,
        "meta_element_set_no": 999,
        "meta_rev_at_epoch": 513,
        "meta_bstar": -0.048691349,
        "meta_mean_motion_dot": -0.02087999,
        "meta_mean_motion_ddot": 0,
        "tle_line1": "1 66818U 25278AD  25360.25003472 -.02087999  00000+0 -48691-1 0  9996",
        "tle_line2": "2 66818  43.0010 171.1339 0001837 264.3236 113.5706 15.45032170  5139"
      },
      "geometry": {
        "type": "Point",
        "coordinates": [
          -7.802499609742417,
          -2.894904224758837
        ]
      }
    },
    {
      "type": "Feature",
      "properties": {
        "norad_id": 66819,
        "name": "STARLINK-35989",
        "group": "last-30-days",
        "lat": -19.041458436304225,
        "lon": 10.764965929929499,
        "alt_km": 416.4530201704647,
        "timestamp": "2025-12-26T14:28:46.396247+00:00",
        "meta_object_name": "STARLINK-35989",
        "meta_object_id": "2025-278AE",
        "meta_epoch": "2025-12-26T06:00:02.999808",
        "meta_mean_motion": 15.50532765,
        "meta_eccentricity": 0.00015913,
        "meta_inclination": 43.0003,
        "meta_ra_of_asc_node": 171.093,
        "meta_arg_of_pericenter": 268.7741,
        "meta_mean_anomaly": 125.392,
        "meta_ephemeris_type": 0,
        "meta_classification_type": "U",
        "meta_norad_cat_id": 66819,
        "meta_element_set_no": 999,
        "meta_rev_at_epoch": 513,
        "meta_bstar": 0.00074014677,
        "meta_mean_motion_dot": 0.00043248,
        "meta_mean_motion_ddot": 0,
        "tle_line1": "1 66819U 25278AE  25360.25003472  .00043248  00000+0  74015-3 0  9993",
        "tle_line2": "2 66819  43.0003 171.0930 0001591 268.7741 125.3920 15.50532765  5134"
      },
      "geometry": {
        "type": "Point",
        "coordinates": [
          10.764965929929499,
          -19.041458436304225
        ]
      }
    },
    {
      "type": "Feature",
      "properties": {
        "norad_id": 66820,
        "name": "KOMPSAT-7",
        "group": "last-30-days",
        "lat": -57.53490469623933,
        "lon": -41.57949109846304,
        "alt_km": 571.222223614328,
        "timestamp": "2025-12-26T14:28:46.396257+00:00",
        "meta_object_name": "KOMPSAT-7",
        "meta_object_id": "2025-279A",
        "meta_epoch": "2025-12-25T13:08:14.231616",
        "meta_mean_motion": 15.00813233,
        "meta_eccentricity": 0.00097586,
        "meta_inclination": 97.6449,
        "meta_ra_of_asc_node": 305.1939,
        "meta_arg_of_pericenter": 217.4466,
        "meta_mean_anomaly": 142.6079,
        "meta_ephemeris_type": 0,
        "meta_classification_type": "U",
        "meta_norad_cat_id": 66820,
        "meta_element_set_no": 999,
        "meta_rev_at_epoch": 357,
        "meta_bstar": 0.00023523549,
        "meta_mean_motion_dot": 2.931e-05,
        "meta_mean_motion_ddot": 0,
        "tle_line1": "1 66820U 25279A   25359.54738694  .00002931  00000+0  23524-3 0  9990",
        "tle_line2": "2 66820  97.6449 305.1939 0009758 217.4466 142.6079 15.00813233  3572"
      },
      "geometry": {
        "type": "Point",
        "coordinates": [
          -41.57949109846304,
          -57.53490469623933
        ]
      }
    }
  ]
}